{
  "type": "FeatureCollection",
  "features": [
    {
      "type": "Feature",
      "properties": {
        "norad_id": 30090,
        "name": "FENGYUN 1C DEB",
        "group": "fengyun-1c-debris",
        "lat": 56.544921451729124,
        "lon": 134.4200341909295,
        "alt_km": 784.0624756571588,
        "timestamp": "2025-12-02T15:49:07.463381+00:00",
        "meta_object_name": "FENGYUN 1C DEB",
        "meta_object_id": "1999-025QT",
        "meta_epoch": "2025-12-02T07:42:28.255104",
        "meta_mean_motion": 14.28999566,
        "meta_eccentricity": 0.00581687,
        "meta_inclination": 99.4093,
        "meta_ra_of_asc_node": 148.5898,
        "meta_arg_of_pericenter": 141.4735,
        "meta_mean_anomaly": 339.3904,
        "meta_ephemeris_type": 0,
        "meta_classification_type": "U",
        "meta_norad_cat_id": 30090,
        "meta_element_set_no": 999,
        "meta_rev_at_epoch": 98121,
        "meta_bstar": 0.0004011228,
        "meta_mean_motion_dot": 9.83e-06,
        "meta_mean_motion_ddot": 0,
        "tle_line1": "1 30090U 99025QT  25336.32116036  .00000983  00000+0  40112-3 0  9998",
        "tle_line2": "2 30090  99.4093 148.5898 0058168 141.4735 339.3904 14.28999566981215"
      },
      "geometry": {
        "type": "Point",
        "coordinates": [
          134.4200341909295,
          56.544921451729124
        ]
      }
    },
    {
      "type": "Feature",
      "properties": {
        "norad_id": 30092,
        "name": "FENGYUN 1C DEB",
        "group": "fengyun-1c-debris",
        "lat": 13.22215444726609,
        "lon": 153.3906272331874,
        "alt_km": 765.2710669006847,
        "timestamp": "2025-12-02T15:49:07.463392+00:00",
        "meta_object_name": "FENGYUN 1C DEB",
        "meta_object_id": "1999-025QV",
        "meta_epoch": "2025-12-02T01:18:27.813312",
        "meta_mean_motion": 14.39076026,
        "meta_eccentricity": 0.00826471,
        "meta_inclination": 98.9234,
        "meta_ra_of_asc_node": 154.8774,
        "meta_arg_of_pericenter": 282.2237,
        "meta_mean_anomaly": 199.7454,
        "meta_ephemeris_type": 0,
        "meta_classification_type": "U",
        "meta_norad_cat_id": 30092,
        "meta_element_set_no": 999,
        "meta_rev_at_epoch": 98595,
        "meta_bstar": 0.00060818792,
        "meta_mean_motion_dot": 1.907e-05,
        "meta_mean_motion_ddot": 0,
        "tle_line1": "1 30092U 99025QV  25336.05448858  .00001907  00000+0  60819-3 0  9993",
        "tle_line2": "2 30092  98.9234 154.8774 0082647 282.2237 199.7454 14.39076026985953"
      },
      "geometry": {
        "type": "Point",
        "coordinates": [
          153.3906272331874,
          13.22215444726609
        ]
      }
    },
    {
      "type": "Feature",
      "properties": {
        "norad_id": 30093,
        "name": "FENGYUN 1C DEB",
        "group": "fengyun-1c-debris",
        "lat": 61.21504266945545,
        "lon": -165.69962689964083,
        "alt_km": 711.6748372095326,
        "timestamp": "2025-12-02T15:49:07.463402+00:00",
        "meta_object_name": "FENGYUN 1C DEB",
        "meta_object_id": "1999-025QW",
        "meta_epoch": "2025-12-02T06:07:54.158016",
        "meta_mean_motion": 14.43583197,
        "meta_eccentricity": 0.00707426,
        "meta_inclination": 98.8685,
        "meta_ra_of_asc_node": 210.3902,
        "meta_arg_of_pericenter": 8.5614,
        "meta_mean_anomaly": 116.9255,
        "meta_ephemeris_type": 0,
        "meta_classification_type": "U",
        "meta_norad_cat_id": 30093,
        "meta_element_set_no": 999,
        "meta_rev_at_epoch": 98652,
        "meta_bstar": 0.0011416843,
        "meta_mean_motion_dot": 3.94e-05,
        "meta_mean_motion_ddot": 0,
        "tle_line1": "1 30093U 99025QW  25336.25548794  .00003940  00000+0  11417-2 0  9994",
        "tle_line2": "2 30093  98.8685 210.3902 0070742   8.5614 116.9255 14.43583197986526"
      },
      "geometry": {
        "type": "Point",
        "coordinates": [
          -165.69962689964083,
          61.21504266945545
        ]
      }
    },
    {
      "type": "Feature",
      "properties": {
        "norad_id": 30095,
        "name": "FENGYUN 1C DEB",
        "group": "fengyun-1c-debris",
        "lat": -61.41682082944621,
        "lon": 58.92199063161195,
        "alt_km": 692.3421980043304,
        "timestamp": "2025-12-02T15:49:07.463413+00:00",
        "meta_object_name": "FENGYUN 1C DEB",
        "meta_object_id": "1999-025QY",
        "meta_epoch": "2025-12-01T17:38:34.471680",
        "meta_mean_motion": 14.81165116,
        "meta_eccentricity": 0.01688726,
        "meta_inclination": 99.2194,
        "meta_ra_of_asc_node": 255.2041,
        "meta_arg_of_pericenter": 6.813,
        "meta_mean_anomaly": 353.5318,
        "meta_ephemeris_type": 0,
        "meta_classification_type": "U",
        "meta_norad_cat_id": 30095,
        "meta_element_set_no": 999,
        "meta_rev_at_epoch": 99172,
        "meta_bstar": 0.0023310791,
        "meta_mean_motion_dot": 0.00023192,
        "meta_mean_motion_ddot": 0,
        "tle_line1": "1 30095U 99025QY  25335.73512120  .00023192  00000+0  23311-2 0  9999",
        "tle_line2": "2 30095  99.2194 255.2041 0168872   6.8130 353.5318 14.81165116991722"
      },
      "geometry": {
        "type": "Point",
        "coordinates": [
          58.92199063161195,
          -61.41682082944621
        ]
      }
    },
    {
      "type": "Feature",
      "properties": {
        "norad_id": 30096,
        "name": "FENGYUN 1C DEB",
        "group": "fengyun-1c-debris",
        "lat": -78.4054851297552,
        "lon": -176.38969761539812,
        "alt_km": 737.0131332796582,
        "timestamp": "2025-12-02T15:49:07.463424+00:00",
        "meta_object_name": "FENGYUN 1C DEB",
        "meta_object_id": "1999-025QZ",
        "meta_epoch": "2025-12-02T04:31:35.929056",
        "meta_mean_motion": 14.31659256,
        "meta_eccentricity": 0.00788279,
        "meta_inclination": 99.1487,
        "meta_ra_of_asc_node": 54.8763,
        "meta_arg_of_pericenter": 263.231,
        "meta_mean_anomaly": 95.9897,
        "meta_ephemeris_type": 0,
        "meta_classification_type": "U",
        "meta_norad_cat_id": 30096,
        "meta_element_set_no": 999,
        "meta_rev_at_epoch": 98395,
        "meta_bstar": 0.00037484835,
        "meta_mean_motion_dot": 9.84e-06,
        "meta_mean_motion_ddot": 0,
        "tle_line1": "1 30096U 99025QZ  25336.18861029  .00000984  00000+0  37485-3 0  9997",
        "tle_line2": "2 30096  99.1487  54.8763 0078827 263.2310  95.9897 14.31659256983953"
      },
      "geometry": {
        "type": "Point",
        "coordinates": [
          -176.38969761539812,
          -78.4054851297552
        ]
      }
    },
    {
      "type": "Feature",
      "properties": {
        "norad_id": 30099,
        "name": "FENGYUN 1C DEB",
        "group": "fengyun-1c-debris",
        "lat": -5.803328733816891,
        "lon": 50.094944235377156,
        "alt_km": 800.9219501703055,
        "timestamp": "2025-12-02T15:49:07.463435+00:00",
        "meta_object_name": "FENGYUN 1C DEB",
        "meta_object_id": "1999-025RC",
        "meta_epoch": "2025-12-02T04:18:52.299072",
        "meta_mean_motion": 14.25911217,
        "meta_eccentricity": 0.00608702,
        "meta_inclination": 98.5419,
        "meta_ra_of_asc_node": 48.7525,
        "meta_arg_of_pericenter": 276.0595,
        "meta_mean_anomaly": 138.3076,
        "meta_ephemeris_type": 0,
        "meta_classification_type": "U",
        "meta_norad_cat_id": 30099,
        "meta_element_set_no": 999,
        "meta_rev_at_epoch": 98039,
        "meta_bstar": 0.0003410466,
        "meta_mean_motion_dot": 7.85e-06,
        "meta_mean_motion_ddot": 0,
        "tle_line1": "1 30099U 99025RC  25336.17977198  .00000785  00000+0  34105-3 0  9999",
        "tle_line2": "2 30099  98.5419  48.7525 0060870 276.0595 138.3076 14.25911217980395"
      },
      "geometry": {
        "type": "Point",
        "coordinates": [
          50.094944235377156,
          -5.803328733816891
        ]
      }
    },
    {
      "type": "Feature",
      "properties": {
        "norad_id": 30102,
        "name": "FENGYUN 1C DEB",
        "group": "fengyun-1c-debris",
        "lat": -46.50179727048091,
        "lon": -6.130708031284363,
        "alt_km": 800.012983507514,
        "timestamp": "2025-12-02T15:49:07.463446+00:00",
        "meta_object_name": "FENGYUN 1C DEB",
        "meta_object_id": "1999-025RF",
        "meta_epoch": "2025-12-02T07:40:06.609216",
        "meta_mean_motion": 14.22102396,
        "meta_eccentricity": 0.0142349,
        "meta_inclination": 98.3794,
        "meta_ra_of_asc_node": 344.6105,
        "meta_arg_of_pericenter": 30.5973,
        "meta_mean_anomaly": 346.3344,
        "meta_ephemeris_type": 0,
        "meta_classification_type": "U",
        "meta_norad_cat_id": 30102,
        "meta_element_set_no": 999,
        "meta_rev_at_epoch": 97810,
        "meta_bstar": 0.00046845992,
        "meta_mean_motion_dot": 1.109e-05,
        "meta_mean_motion_ddot": 0,
        "tle_line1": "1 30102U 99025RF  25336.31952094  .00001109  00000+0  46846-3 0  9994",
        "tle_line2": "2 30102  98.3794 344.6105 0142349  30.5973 346.3344 14.22102396978103"
      },
      "geometry": {
        "type": "Point",
        "coordinates": [
          -6.130708031284363,
          -46.50179727048091
        ]
      }
    }
  ]
}